NORAD_CAT_ID,OBJECT_NAME,OBJECT_TYPE,EPOCH,MEAN_MOTION,ECCENTRICITY,INCLINATION,RA_OF_ASC_NODE,ARG_OF_PERICENTER,MEAN_ANOMALY,BSTAR,MEAN_MOTION_DOT,MEAN_MOTION_DDOT,TLE_LINE0,TLE_LINE1,TLE_LINE2,SEMIMAJOR_AXIS,PERIOD,APOGEE,PERIGEE,DECAYED
52296.0,STARLINK-3766,PAYLOAD,2022-10-22 21:08:47,15.08840045,0.0001603,53.2198,237.9075,56.2926,303.8219,8.9951e-05,1.144e-05,0.0,0 STARLINK-3766,1 52296U 22041AM  22295.88110229  .00001144  00000-0  89951-4 0  9990,2 52296  53.2198 237.9075 0001603  56.2926 303.8219 15.08840045 28244,6917.88,95.438,540.854,538.636,0.0
52296.0,STARLINK-3766,PAYLOAD,2022-10-23 06:41:06,15.08839921,0.0001575999999999,53.2213,236.1244,59.4165,300.6982,8.5769e-05,1.077e-05,0.0,0 STARLINK-3766,1 52296U 22041AM  22296.27854169  .00001077  00000-0  85769-4 0  9990,2 52296  53.2213 236.1244 0001576  59.4165 300.6982 15.08839921 28300,6917.880999999999,95.438,540.836,538.655,0.0
52296.0,STARLINK-3766,PAYLOAD,2022-10-23 13:02:38,15.08844807,0.0001634,53.2211,234.9352,58.4203,301.6948,6.2103e-05,7.01e-06,0.0,0 STARLINK-3766,1 52296U 22041AM  22296.54349901  .00000701  00000-0  62103-4 0  9993,2 52296  53.2211 234.9352 0001634  58.4203 301.6948 15.08844807 28347,6917.866,95.437,540.861,538.6,0.0
52296.0,STARLINK-3766,PAYLOAD,2022-10-24 00:10:19,15.08857814,0.0001508,53.2223,232.8534,57.4274,302.6863,3.3621e-05,2.47e-06,0.0,0 STARLINK-3766,1 52296U 22041AM  22297.00716774  .00000247  00000-0  33621-4 0  9999,2 52296  53.2223 232.8534 0001508  57.4274 302.6863 15.08857814 29638,6917.826,95.436,540.734,538.648,0.0
52296.0,STARLINK-3766,PAYLOAD,2022-10-24 04:56:30,15.08833945,0.0001582,53.2205,231.9616,60.8247,299.2903,-5.917e-05,-1.229e-05,0.0,0 STARLINK-3766,1 52296U 22041AM  22297.20590491 -.00001229  00000-0 -59170-4 0  9997,2 52296  53.2205 231.9616 0001582  60.8247 299.2903 15.08833945 28442,6917.899,95.438,540.8580000000002,538.669,0.0
52296.0,STARLINK-3766,PAYLOAD,2022-10-24 19:14:57,15.08839764,0.000158,53.2201,229.2844,59.7573,300.3576,2.4768e-05,1.06e-06,0.0,0 STARLINK-3766,1 52296U 22041AM  22297.80205968  .00000106  00000-0  24768-4 0  9991,2 52296  53.2201 229.2844 0001580  59.7573 300.3576 15.08839764 28533,6917.880999999999,95.438,540.839,538.653,0.0
52296.0,STARLINK-3766,PAYLOAD,2022-10-25 04:47:16,15.08847005,0.000155,53.22,227.5007,55.9299,304.184,5.272e-05,5.51e-06,0.0,0 STARLINK-3766,1 52296U 22041AM  22298.19949264  .00000551  00000-0  52720-4 0  9991,2 52296  53.2200 227.5007 0001550  55.9299 304.1840 15.08847005 29819,6917.859,95.437,540.7959999999998,538.6519999999998,0.0
52296.0,STARLINK-3766,PAYLOAD,2022-10-25 12:44:12,15.08836583,0.0001798,53.2207,226.015,58.6847,301.4321,2.9449e-05,1.81e-06,0.0,0 STARLINK-3766,1 52296U 22041AM  22298.53070101  .00000181  00000-0  29449-4 0  9995,2 52296  53.2207 226.0150 0001798  58.6847 301.4321 15.08836583 28645,6917.891,95.438,541.0,538.512,0.0
52296.0,STARLINK-3766,PAYLOAD,2022-10-26 04:38:04,15.08827138,0.0001618,53.2201,223.0407,59.7967,300.3185,9.2167e-05,1.179e-05,0.0,0 STARLINK-3766,1 52296U 22041AM  22299.19310647  .00001179  00000-0  92167-4 0  9995,2 52296  53.2201 223.0407 0001618  59.7967 300.3185 15.08827138 29965,6917.92,95.438,540.904,538.665,0.0
52296.0,STARLINK-3766,PAYLOAD,2022-10-26 12:34:59,15.08833111,0.0001679,53.2205,221.5543,59.1765,300.9392,9.1542e-05,1.169e-05,0.0,0 STARLINK-3766,1 52296U 22041AM  22299.52430532  .00001169  00000-0  91542-4 0  9993,2 52296  53.2205 221.5543 0001679  59.1765 300.9392 15.08833111 28794,6917.901,95.438,540.928,538.605,0.0
52296.0,STARLINK-3766,PAYLOAD,2022-10-27 04:28:51,15.08835444,0.0001744,53.2205,218.5804,67.9766,292.1411,-6.1148e-05,-1.261e-05,0.0,0 STARLINK-3766,1 52296U 22041AM  22300.18671053 -.00001261  00000-0 -61148-4 0  9997,2 52296  53.2205 218.5804 0001744  67.9766 292.1411 15.08835444 28897,6917.894,95.438,540.966,538.553,0.0
52296.0,STARLINK-3766,PAYLOAD,2022-10-27 21:58:06,15.0883128,0.0001551999999999,53.2207,215.3121,50.3794,309.7335,0.00024649,3.636e-05,0.0,0 STARLINK-3766,1 52296U 22041AM  22300.91534732  .00003636  00000-0  24649-3 0  9990,2 52296  53.2207 215.3121 0001552  50.3794 309.7335 15.08831280 30224,6917.906999999997,95.438,540.846,538.698,0.0
52296.0,STARLINK-3766,PAYLOAD,2022-10-28 04:19:38,15.08832719,0.0001855999999999,53.2209,214.1212,53.8689,306.2474,0.00012225,1.658e-05,0.0,0 STARLINK-3766,1 52296U 22041AM  22301.18031134  .00001658  00000-0  12225-3 0  9997,2 52296  53.2209 214.1212 0001856  53.8689 306.2474 15.08832719 29044,6917.903,95.438,541.052,538.484,0.0
52296.0,STARLINK-3766,PAYLOAD,2022-10-28 18:38:06,15.08843258,0.0001602,53.2203,211.4452,55.4778,304.6365,0.00017566,2.509e-05,0.0,0 STARLINK-3766,1 52296U 22041AM  22301.77646340  .00002509  00000-0  17566-3 0  9992,2 52296  53.2203 211.4452 0001602  55.4778 304.6365 15.08843258 29131,6917.87,95.437,540.844,538.627,0.0
52296.0,STARLINK-3766,PAYLOAD,2022-10-29 04:10:25,15.08836779,0.0001624,53.2206,209.6611,56.9534,303.1614,0.00012663,1.728e-05,0.0,0 STARLINK-3766,1 52296U 22041AM  22302.17391037  .00001728  00000-0  12663-3 0  9992,2 52296  53.2206 209.6611 0001624  56.9534 303.1614 15.08836779 29197,6917.89,95.438,540.879,538.632,0.0
52296.0,STARLINK-3766,PAYLOAD,2022-10-30 10:22:43,15.08857361,0.0001643,53.2185,204.0094,45.6752,314.4375,0.0002154999999999,3.145e-05,0.0,0 STARLINK-3766,1 52296U 22041AM  22303.43245285  .00003145  00000-0  21550-3 0  9995,2 52296  53.2185 204.0094 0001643  45.6752 314.4375 15.08857361 29385,6917.8269999999975,95.436,540.8290000000002,538.556,0.0
52296.0,STARLINK-3766,PAYLOAD,2022-10-30 21:30:26,15.08835113,0.0001165,53.2202,201.9293,58.3777,301.7329,-0.00016706,-2.945e-05,0.0,0 STARLINK-3766,1 52296U 22041AM  22303.89613890 -.00002945  00000-0 -16706-3 0  9992,2 52296  53.2202 201.9293 0001165  58.3777 301.7329 15.08835113 29456,6917.895,95.438,540.566,538.9540000000002,0.0
52296.0,STARLINK-3766,PAYLOAD,2022-10-31 10:13:32,15.08835407,0.0001561999999999,53.2203,199.5513,53.9524,306.1613,-8.105699999999999e-05,-1.578e-05,0.0,0 STARLINK-3766,1 52296U 22041AM  22304.42607041 -.00001578  00000-0 -81057-4 0  9996,2 52296  53.2203 199.5513 0001562  53.9524 306.1613 15.08835407 29536,6917.894,95.438,540.84,538.679,0.0
52296.0,STARLINK-3766,PAYLOAD,2022-10-31 19:45:50,15.08843507,0.0001450999999999,53.2202,197.7669,50.9598,309.1523,-5.9812e-05,-1.24e-05,0.0,0 STARLINK-3766,1 52296U 22041AM  22304.82350424 -.00001240  00000-0 -59812-4 0  9990,2 52296  53.2202 197.7669 0001451  50.9598 309.1523 15.08843507 29591,6917.87,95.437,540.738,538.731,0.0
52296.0,STARLINK-3766,PAYLOAD,2022-11-01 10:04:19,15.08838682,0.0001610999999999,53.2203,195.0906,53.2227,306.8913,-3.8976e-05,-9.08e-06,0.0,0 STARLINK-3766,1 52296U 22041AM  22305.41966864 -.00000908  00000-0 -38976-4 0  9995,2 52296  53.2203 195.0906 0001611  53.2227 306.8913 15.08838682 29685,6917.884,95.438,540.864,538.635,0.0
52296.0,STARLINK-3766,PAYLOAD,2022-11-01 19:36:38,15.0883656,0.0001449,53.2203,193.3065,52.2558,307.8565,-4.7689e-05,-1.047e-05,0.0,0 STARLINK-3766,1 52296U 22041AM  22305.81711066 -.00001047  00000-0 -47689-4 0  9997,2 52296  53.2203 193.3065 0001449  52.2558 307.8565 15.08836560 30967,6917.891,95.438,540.758,538.754,0.0
52296.0,STARLINK-3766,PAYLOAD,2022-11-02 09:55:06,15.08831302,0.0001455,53.2203,190.6307,60.933,299.1808,0.00014459,2.013e-05,0.0,0 STARLINK-3766,1 52296U 22041AM  22306.41327206  .00002013  00000-0  14459-3 0  9993,2 52296  53.2203 190.6307 0001455  60.9330 299.1808 15.08831302 29833,6917.906999999997,95.438,540.779,538.765,0.0
52296.0,STARLINK-3766,PAYLOAD,2022-11-03 01:48:58,15.08828836,0.0001703,53.2198,187.6567,66.4447,293.6724,3.3361e-05,2.43e-06,0.0,0 STARLINK-3766,1 52296U 22041AM  22307.07568126  .00000243  00000-0  33361-4 0  9991,2 52296  53.2198 187.6567 0001703  66.4447 293.6724 15.08828836 31158,6917.915,95.438,540.9580000000002,538.601,0.0
52296.0,STARLINK-3766,PAYLOAD,2022-11-03 09:45:53,15.08841594,0.0001725,53.2201,186.1702,61.3175,298.7990000000001,9.2993e-05,1.192e-05,0.0,0 STARLINK-3766,1 52296U 22041AM  22307.40687225  .00001192  00000-0  92993-4 0  9990,2 52296  53.2201 186.1702 0001725  61.3175 298.7990 15.08841594 31207,6917.876,95.437,540.934,538.547,0.0
52296.0,STARLINK-3766,PAYLOAD,2022-11-03 16:07:26,15.0884457,0.0001699,53.2199,184.9806,62.0603,298.0561,0.00012916,1.768e-05,0.0,0 STARLINK-3766,1 52296U 22041AM  22307.67182912  .00001768  00000-0  12916-3 0  9997,2 52296  53.2199 184.9806 0001699  62.0603 298.0561 15.08844570 30021,6917.866,95.437,540.9069999999998,538.556,0.0
52296.0,STARLINK-3766,PAYLOAD,2022-11-04 01:39:43,15.08852122,0.0001786999999999,53.2199,183.1967,64.1354,295.9822,0.00024578,3.627e-05,0.0,0 STARLINK-3766,1 52296U 22041AM  22308.06925818  .00003627  00000-0  24578-3 0  9994,2 52296  53.2199 183.1967 0001787  64.1354 295.9822 15.08852122 31304,6917.843000000003,95.437,540.945,538.472,0.0
52296.0,STARLINK-3766,PAYLOAD,2022-11-05 01:30:32,15.08835193,0.0001646,53.219,178.7366,57.2518,302.8633,-1.9191e-06,-3.19e-06,0.0,0 STARLINK-3766,1 52296U 22041AM  22309.06287341 -.00000319  00000-0 -19191-5 0  9991,2 52296  53.2190 178.7366 0001646  57.2518 302.8633 15.08835193 30235,6917.895,95.438,540.899,538.621,0.0
52296.0,STARLINK-3766,PAYLOAD,2022-11-05 15:49:01,15.0883098,0.0002115,53.2194,176.0611,56.8054,303.314,-0.00019162,-3.336e-05,0.0,0 STARLINK-3766,1 52296U 22041AM  22309.65904618 -.00003336  00000-0 -19162-3 0  9997,2 52296  53.2194 176.0611 0002115  56.8054 303.3140 15.08830980 31548,6917.908,95.438,541.236,538.31,0.0
52296.0,STARLINK-3766,PAYLOAD,2022-11-06 01:21:20,15.08837492,0.0001604,53.219,174.2759,60.2312,299.884,-0.00045546,-7.529e-05,0.0,0 STARLINK-3766,1 52296U 22041AM  22310.05649296 -.00007529  00000-0 -45546-3 0  9994,2 52296  53.2190 174.2759 0001604  60.2312 299.8840 15.08837492 30387,6917.888000000001,95.438,540.863,538.643,0.0
